[{"OBJECT_NAME":"STARLINK-30182","OBJECT_ID":"2023-102J","EPOCH":"2026-03-09T22:00:01.999584","MEAN_MOTION":15.17692309,"ECCENTRICITY":0.00017334,"INCLINATION":43.0001,"RA_OF_ASC_NODE":246.596,"ARG_OF_PERICENTER":271.5021,"MEAN_ANOMALY":59.9842,"EPHEMERIS_TYPE":0,"CLASSIFICATION_TYPE":"U","NORAD_CAT_ID":57412,"ELEMENT_SET_NO":999,"REV_AT_EPOCH":577,"BSTAR":0.0061388079,"MEAN_MOTION_DOT":0.00128052,"MEAN_MOTION_DDOT":0},{"OBJECT_NAME":"YAOGAN-39 01C","OBJECT_ID":"2023-130E","EPOCH":"2026-03-10T00:21:12.086208","MEAN_MOTION":15.17357748,"ECCENTRICITY":0.00019778,"INCLINATION":34.9938,"RA_OF_ASC_NODE":50.1324,"ARG_OF_PERICENTER":224.3051,"MEAN_ANOMALY":135.7503,"EPHEMERIS_TYPE":0,"CLASSIFICATION_TYPE":"U","NORAD_CAT_ID":57731,"ELEMENT_SET_NO":999,"REV_AT_EPOCH":14039,"BSTAR":0.00036987259,"MEAN_MOTION_DOT":7.529e-5,"MEAN_MOTION_DDOT":0}]
